STARLINK-2667
1 28663C 21044AB  21325.13316433 -.00006815  00000-0 -45683-3 0  3259
2 28663  53.0552 317.6182 0001685  60.8226 235.5620 15.06390121    13
